1 41174U 15079A   21002.58823149  .00000065  00000-0  00000+0 0  9994
2 41174  55.0284 156.0000 0002584 335.2215  24.7250  1.70473433 31405
1 41174U 15079A   21002.58823149  .00000065  00000-0  00000-0 0  9995
2 41174  55.0284 156.0000 0002584 335.2215  24.7250  1.70473433 30998
1 41174U 15079A   21005.52116937  .00000069  00000-0  00000+0 0  9995
2 41174  55.0291 155.9193 0002602 333.8977  26.0575  1.70473412 31451
1 41174U 15079A   21005.52116937  .00000069  00000-0  00000-0 0  9996
2 41174  55.0291 155.9193 0002602 333.8977  26.0575  1.70473412 31046
1 41174U 15079A   21006.10775355  .00000068  00000-0  00000-0 0  9995
2 41174  55.0298 155.9032 0002605 333.7807  26.1750  1.70473446 31053
1 41174U 15079A   21007.28091966  .00000062  00000-0  00000-0 0  9998
2 41174  55.0302 155.8709 0002617 332.7941  27.1591  1.70473429 31077
1 41174U 15079A   21007.28092119  .00000062  00000-0  00000+0 0  9998
2 41174  55.0300 155.8709 0002610 333.0757  26.8777  1.70473393 31484
1 41174U 15079A   21008.45407981  .00000051  00000-0  00000+0 0  9993
2 41174  55.0302 155.8387 0002619 332.6200  27.3275  1.70473436 31505
1 41174U 15079A   21008.45407981  .00000051  00000-0  00000-0 0  9994
2 41174  55.0302 155.8387 0002619 332.6200  27.3275  1.70473436 31099
1 41174U 15079A   21009.62723586  .00000037  00000-0  00000+0 0  9999
2 41174  55.0304 155.8064 0002626 331.6476  28.2910  1.70473426 31528
1 41174U 15079A   21010.21381265  .00000030  00000-0  00000-0 0  9994
2 41174  55.0305 155.7902 0002619 331.6971  28.2372  1.70473458 31124
1 41174U 15079A   21011.97354772  .00000014  00000-0  00000+0 0  9992
2 41174  55.0308 155.7418 0002645 330.4530  29.4702  1.70473521 31565
1 41174U 15079A   21011.97354772  .00000014  00000-0  00000-0 0  9993
2 41174  55.0308 155.7418 0002645 330.4530  29.4702  1.70473521 31150
1 41174U 15079A   21013.14671220  .00000010  00000-0  00000+0 0  9999
2 41174  55.0311 155.7095 0002653 330.0194  29.9008  1.70473535 31582
1 41174U 15079A   21013.14671220  .00000010  00000-0  00000-0 0  9990
2 41174  55.0311 155.7095 0002653 330.0194  29.9008  1.70473535 31177
1 41174U 15079A   21015.49305817  .00000015  00000-0  00000+0 0  9990
2 41174  55.0315 155.6450 0002687 328.4933  31.4316  1.70473596 31621
1 41174U 15079A   21015.49305817  .00000015  00000-0  00000-0 0  9991
2 41174  55.0315 155.6450 0002687 328.4933  31.4316  1.70473596 31216
1 41174U 15079A   21017.83941455  .00000026  00000-0  00000+0 0  9996
2 41174  55.0320 155.5805 0002711 327.3731  32.5636  1.70473669 31664
1 41174U 15079A   21018.42600329  .00000027  00000-0  00000-0 0  9996
2 41174  55.0321 155.5644 0002718 327.0779  32.8613  1.70473673 31261
1 41174U 15079A   21020.18576447  .00000029  00000-0  00000+0 0  9996
2 41174  55.0324 155.5160 0002750 325.9884  33.9553  1.70473666 31703
1 41174U 15079A   21020.18576447  .00000029  00000-0  00000-0 0  9997
2 41174  55.0324 155.5160 0002750 325.9884  33.9553  1.70473666 31297
1 41174U 15079A   21021.35893166  .00000029  00000-0  00000+0 0  9996
2 41174  55.0325 155.4837 0002769 325.4079  34.5357  1.70473700 31725
1 41174U 15079A   21021.35893166  .00000029  00000-0  00000-0 0  9997
2 41174  55.0325 155.4837 0002769 325.4079  34.5357  1.70473700 31310
1 41174U 15079A   21021.94551326  .00000028  00000-0  00000-0 0  9990
2 41174  55.0326 155.4676 0002799 324.7503  35.1922  1.70473720 31327
1 41174U 15079A   21024.29183904  .00000024  00000-0  00000+0 0  9999
2 41174  55.0330 155.4031 0002851 323.7064  36.2290  1.70473671 31771
1 41174U 15079A   21024.29183904  .00000024  00000-0  00000-0 0  9990
2 41174  55.0330 155.4031 0002851 323.7064  36.2290  1.70473671 31366
1 41174U 15079A   21029.57109621  .00000019  00000-0  00000+0 0  9993
2 41174  55.0338 155.2580 0002938 321.5760  38.3589  1.70473600 31867
1 41174U 15079A   21029.57109621  .00000019  00000-0  00000-0 0  9994
2 41174  55.0338 155.2580 0002938 321.5760  38.3589  1.70473600 31452
1 41174U 15079A   21031.33086264  .00000023  00000-0  00000+0 0  9992
2 41174  55.0344 155.2095 0002985 320.1415  39.8029  1.70473629 31898
1 41174U 15079A   21031.33086264  .00000023  00000-0  00000-0 0  9993
2 41174  55.0344 155.2095 0002985 320.1415  39.8029  1.70473629 31483
1 41174U 15079A   21031.91745489  .00000024  00000-0  00000-0 0  9999
2 41174  55.0345 155.1934 0003008 319.7829  40.1648  1.70473528 31496
1 41174U 15079A   21034.26379855  .00000021  00000-0  00000+0 0  9996
2 41174  55.0351 155.1288 0003035 319.1540  40.8006  1.70473656 31946
1 41174U 15079A   21034.26379855  .00000021  00000-0  00000-0 0  9997
2 41174  55.0351 155.1288 0003035 319.1540  40.8006  1.70473656 31531
1 41174U 15079A   21034.85038392  .00000017  00000-0  00000-0 0  9995
2 41174  55.0353 155.1127 0003049 318.9094  41.0445  1.70473593 31542
1 41174U 15079A   21036.61012522  .00000000  00000-0  00000-0 0  9990
2 41174  55.0355 155.0642 0003094 317.8679  42.0788  1.70473586 31578
1 41174U 15079A   21036.61012522 -.00000000  00000-0  00000+0 0  9990
2 41174  55.0355 155.0642 0003094 317.8679  42.0788  1.70473586 31983
1 41174U 15079A   21037.78328411 -.00000013  00000-0  00000+0 0  9990
2 41174  55.0360 155.0320 0003098 317.7957  42.1450  1.70473592 32002
1 41174U 15079A   21037.78328411 -.00000013  00000-0  00000-0 0  9991
2 41174  55.0360 155.0320 0003098 317.7957  42.1450  1.70473592 31595
1 41174U 15079A   21038.36986302 -.00000019  00000-0  00000-0 0  9991
2 41174  55.0359 155.0158 0003112 317.5243  42.4136  1.70473618 31600
1 41174U 15079A   21039.54302447 -.00000027  00000-0  00000+0 0  9992
2 41174  55.0359 154.9835 0003143 316.9313  43.0031  1.70473667 32038
1 41174U 15079A   21039.54302447 -.00000027  00000-0  00000-0 0  9993
2 41174  55.0359 154.9835 0003143 316.9313  43.0031  1.70473667 31622
1 41174U 15079A   21040.12960754 -.00000028  00000-0  00000-0 0  9991
2 41174  55.0350 154.9674 0003201 315.9455  43.9879  1.70473675 31634
1 41174U 15079A   21042.47595652 -.00000023  00000-0  00000+0 0  9996
2 41174  55.0354 154.9028 0003262 315.0432  44.8984  1.70473743 32087
1 41174U 15079A   21042.47595652 -.00000023  00000-0  00000-0 0  9997
2 41174  55.0354 154.9028 0003262 315.0432  44.8984  1.70473743 31671
1 41174U 15079A   21044.23572903 -.00000014  00000-0  00000+0 0  9996
2 41174  55.0356 154.8544 0003323 314.1937  45.7598  1.70473761 32114
1 41174U 15079A   21044.23572903 -.00000014  00000-0  00000-0 0  9997
2 41174  55.0356 154.8544 0003323 314.1937  45.7598  1.70473761 31708
1 41174U 15079A   21045.40890926 -.00000008  00000-0  00000+0 0  9997
2 41174  55.0357 154.8221 0003355 313.7387  46.2227  1.70473801 32138
1 41174U 15079A   21045.40890926 -.00000008  00000-0  00000-0 0  9998
2 41174  55.0357 154.8221 0003355 313.7387  46.2227  1.70473801 31722
1 41174U 15079A   21045.99549808 -.00000007  00000-0  00000-0 0  9991
2 41174  55.0358 154.8060 0003387 313.3033  46.6614  1.70473835 31735
1 41174U 15079A   21047.75526102 -.00000004  00000-0  00000+0 0  9995
2 41174  55.0360 154.7576 0003448 312.5918  47.3795  1.70473828 32179
1 41174U 15079A   21048.34184627 -.00000003  00000-0  00000-0 0  9993
2 41174  55.0360 154.7415 0003451 312.6164  47.3561  1.70473837 31775
